{"fetched_at":"2026-07-06T08:47:10.046Z","source":"https://celestrak.org/NORAD/elements/gp.php?NAME=LEGION&FORMAT=JSON","constellation":"maxar-legion","records":[{"OBJECT_NAME":"LEGION 1","OBJECT_ID":"2024-081A","EPOCH":"2026-07-05T08:52:20.195616","CLASSIFICATION_TYPE":"U","MEAN_MOTION":15.16799171,"ECCENTRICITY":0.0007966,"INCLINATION":97.5007,"RA_OF_ASC_NODE":264.0336,"ARG_OF_PERICENTER":310.445,"MEAN_ANOMALY":49.6087,"EPHEMERIS_TYPE":0,"NORAD_CAT_ID":59625,"ELEMENT_SET_NO":999,"REV_AT_EPOCH":12029,"BSTAR":0.00032396,"MEAN_MOTION_DOT":0.00006303,"MEAN_MOTION_DDOT":0},{"OBJECT_NAME":"LEGION 2","OBJECT_ID":"2024-081B","EPOCH":"2026-07-05T08:00:53.090784","CLASSIFICATION_TYPE":"U","MEAN_MOTION":15.16777676,"ECCENTRICITY":0.0009826,"INCLINATION":97.5008,"RA_OF_ASC_NODE":264.0954,"ARG_OF_PERICENTER":272.6886,"MEAN_ANOMALY":87.3222,"EPHEMERIS_TYPE":0,"NORAD_CAT_ID":59626,"ELEMENT_SET_NO":999,"REV_AT_EPOCH":12029,"BSTAR":0.000285,"MEAN_MOTION_DOT":0.00005535,"MEAN_MOTION_DDOT":0},{"OBJECT_NAME":"LEGION 3","OBJECT_ID":"2024-146A","EPOCH":"2026-07-05T07:38:09.850848","CLASSIFICATION_TYPE":"U","MEAN_MOTION":15.1561301,"ECCENTRICITY":0.0008893,"INCLINATION":45.0021,"RA_OF_ASC_NODE":293.328,"ARG_OF_PERICENTER":282.8359,"MEAN_ANOMALY":77.1525,"EPHEMERIS_TYPE":0,"NORAD_CAT_ID":60452,"ELEMENT_SET_NO":999,"REV_AT_EPOCH":10477,"BSTAR":0.00030915,"MEAN_MOTION_DOT":0.00005718,"MEAN_MOTION_DDOT":0},{"OBJECT_NAME":"LEGION 4","OBJECT_ID":"2024-146B","EPOCH":"2026-07-05T13:59:55.364352","CLASSIFICATION_TYPE":"U","MEAN_MOTION":15.16188757,"ECCENTRICITY":0.00116317,"INCLINATION":45.0021,"RA_OF_ASC_NODE":23.7952,"ARG_OF_PERICENTER":51.9024,"MEAN_ANOMALY":308.2902,"EPHEMERIS_TYPE":0,"NORAD_CAT_ID":60453,"ELEMENT_SET_NO":999,"REV_AT_EPOCH":10366,"BSTAR":0.00029766663,"MEAN_MOTION_DOT":0.00005592,"MEAN_MOTION_DDOT":0},{"OBJECT_NAME":"LEGION 5","OBJECT_ID":"2025-025A","EPOCH":"2026-07-05T10:51:24.627168","CLASSIFICATION_TYPE":"U","MEAN_MOTION":15.1603307,"ECCENTRICITY":0.0008476,"INCLINATION":44.9998,"RA_OF_ASC_NODE":203.4679,"ARG_OF_PERICENTER":254.0849,"MEAN_ANOMALY":105.9095,"EPHEMERIS_TYPE":0,"NORAD_CAT_ID":62900,"ELEMENT_SET_NO":999,"REV_AT_EPOCH":7726,"BSTAR":0.00028286,"MEAN_MOTION_DOT":0.00005274,"MEAN_MOTION_DDOT":0},{"OBJECT_NAME":"LEGION 6","OBJECT_ID":"2025-025B","EPOCH":"2026-07-05T06:02:01.570848","CLASSIFICATION_TYPE":"U","MEAN_MOTION":15.15640188,"ECCENTRICITY":0.0010382,"INCLINATION":45,"RA_OF_ASC_NODE":113.6623,"ARG_OF_PERICENTER":226.1577,"MEAN_ANOMALY":133.8444,"EPHEMERIS_TYPE":0,"NORAD_CAT_ID":62901,"ELEMENT_SET_NO":999,"REV_AT_EPOCH":7837,"BSTAR":0.00032594,"MEAN_MOTION_DOT":0.0000605,"MEAN_MOTION_DDOT":0}]}
