LEGION 1                
1 59625U 24081A   26186.36967820  .00006303  00000+0  32396-3 0  9993
2 59625  97.5007 264.0336 0007965 310.4450  49.6087 15.16799171120290
LEGION 2                
1 59626U 24081B   26186.33394782  .00005535  00000+0  28500-3 0  9990
2 59626  97.5008 264.0954 0009825 272.6886  87.3222 15.16777676120293
LEGION 3                
1 60452U 24146A   26186.31816958  .00005718  00000+0  30915-3 0  9999
2 60452  45.0021 293.3280 0008893 282.8359  77.1525 15.15613010104772
LEGION 4                
1 60453U 24146B   26186.58327968  .00005592  00000+0  29767-3 0  9990
2 60453  45.0021  23.7952 0011631  51.9024 308.2902 15.16188757103662
LEGION 5                
1 62900U 25025A   26186.45236837  .00005274  00000+0  28286-3 0  9998
2 62900  44.9998 203.4679 0008476 254.0849 105.9095 15.16033070 77267
LEGION 6                
1 62901U 25025B   26186.25140708  .00006050  00000+0  32594-3 0  9998
2 62901  45.0000 113.6623 0010381 226.1577 133.8444 15.15640189 78376
